OBJECT_NAME,OBJECT_ID,EPOCH,MEAN_MOTION,ECCENTRICITY,INCLINATION,RA_OF_ASC_NODE,ARG_OF_PERICENTER,MEAN_ANOMALY,EPHEMERIS_TYPE,CLASSIFICATION_TYPE,NORAD_CAT_ID,ELEMENT_SET_NO,REV_AT_EPOCH,BSTAR,MEAN_MOTION_DOT,MEAN_MOTION_DDOT
CAMOES,2026-067CV,2026-06-27T04:06:02.660832,15.18399804,.00045931,97.4641,136.5159,61.9655,298.2043,0,U,68507,999,1343,.46790283E-3,.9563E-4,0
STARLINK-37262,2026-068A,2026-06-26T20:04:43.870368,15.34395579,.00007288,53.1601,334.5123,86.0837,274.0249,0,U,68508,999,1376,.80014511E-3,.26751E-3,0
STARLINK-36292,2026-068B,2026-06-26T20:36:26.431200,15.34372553,.00006485,53.1585,339.7404,94.9898,265.1179,0,U,68509,999,1369,.64427803E-3,.21435E-3,0
STARLINK-37260,2026-068C,2026-06-26T20:17:33.306432,15.34383469,.00010399,53.1598,338.1958,60.4173,299.6933,0,U,68510,999,1371,.10904507E-2,.36627E-3,0
STARLINK-37280,2026-068D,2026-06-26T03:41:18.948192,15.34403065,.00019762,53.1580,337.3649,77.9029,282.2195,0,U,68511,999,1366,.4545117E-3,.15012E-3,0
STARLINK-37286,2026-068E,2026-06-26T20:28:50.432736,15.34401663,.00009579,53.1587,333.9154,92.4653,267.6459,0,U,68512,999,1377,.95133136E-3,.31904E-3,0
STARLINK-36250,2026-068F,2026-06-26T20:42:29.712096,15.34400358,.0000743,53.1584,339.7737,87.1401,272.9686,0,U,68513,999,1369,.77461E-3,.25886E-3,0
STARLINK-37251,2026-068G,2026-06-26T20:15:22.178880,15.34382010,.00011866,53.1605,340.3822,67.6812,292.4316,0,U,68514,999,1368,.10923474E-2,.3669E-3,0
STARLINK-36293,2026-068H,2026-06-27T03:55:14.952864,15.34393165,.0000654,53.1589,338.8033,127.1381,232.9681,0,U,68515,999,1373,.88631892E-3,.29682E-3,0
STARLINK-36290,2026-068J,2026-06-26T20:51:35.016192,15.34411597,.0001175,53.1596,339.8050,86.8705,273.2432,0,U,68516,999,1369,.10186E-2,.34208E-3,0
STARLINK-36298,2026-068K,2026-06-27T03:46:10.047936,15.34396537,.00013493,53.1589,338.7834,91.2533,268.8624,0,U,68517,999,1373,.11462352E-2,.38546E-3,0
STARLINK-36857,2026-068L,2026-06-26T21:00:40.887936,15.34371008,.0001036,53.1587,339.8512,62.3877,297.7230,0,U,68518,999,1369,.61969E-3,.20599E-3,0
STARLINK-36326,2026-068M,2026-06-26T21:09:46.185120,15.34381698,.0000837,53.1586,339.8919,81.5388,278.5709,0,U,68519,999,1369,.99337E-3,.33316E-3,0
STARLINK-37126,2026-068N,2026-06-26T22:28:24.705120,15.34396279,.0000976,53.1582,339.5200,88.8496,271.2618,0,U,68520,999,1370,.8255E-3,.27614E-3,0
STARLINK-36347,2026-068P,2026-06-25T20:24:49.754304,15.30214403,.00010215,53.1590,346.9594,116.2082,243.9024,0,U,68521,999,1350,.73619772E-3,.21518E-3,0
STARLINK-36322,2026-068Q,2026-06-26T21:12:47.587104,15.34399743,.0000856,53.1585,339.8977,103.4638,256.6460,0,U,68522,999,1369,.10984E-2,.36917E-3,0
STARLINK-37208,2026-068R,2026-06-26T20:39:27.843552,15.34401287,.0000645,53.1587,339.7539,87.4530,272.6546,0,U,68523,999,1369,.12737692E-2,.42908E-3,0
STARLINK-36302,2026-068S,2026-06-26T19:48:05.274720,15.34388589,.00007324,53.1577,340.2514,114.4325,245.6754,0,U,68524,999,1368,.10159272E-2,.34092E-3,0
STARLINK-36311,2026-068T,2026-06-27T03:34:02.816544,15.34386099,.0001904,53.1612,338.7136,93.9945,266.1276,0,U,68525,999,1373,.6717018E-3,.22376E-3,0
STARLINK-37178,2026-068U,2026-06-26T20:53:57.172704,15.49339492,.0000839,53.1586,337.6876,79.7994,280.3109,0,U,68526,999,1371,.91152E-3,.50631E-3,0
STARLINK-37248,2026-068V,2026-06-27T03:30:10.380672,15.34395008,.0001526,53.1591,336.5011,93.5974,266.5203,0,U,68527,999,1376,.67996312E-3,.22663E-3,0
STARLINK-37241,2026-068W,2026-06-26T22:00:01.998720,15.34354860,.0000732,53.1584,341.7916,104.3961,120.4366,0,U,68528,999,587,.19393E-2,.65626E-3,0
STARLINK-37244,2026-068X,2026-06-27T03:52:12.571968,15.34395452,.00014336,53.1592,338.7971,92.6786,267.4381,0,U,68529,999,1373,.69145785E-3,.23054E-3,0
STARLINK-36285,2026-068Y,2026-06-26T22:00:01.998720,15.34355952,.0000974,53.1581,341.8618,74.7307,115.2152,0,U,68530,999,587,.19022E-2,.64355E-3,0
STARLINK-36294,2026-068Z,2026-06-27T06:00:02.000160,15.34364339,.00011951,53.1586,340.3701,72.1718,125.0893,0,U,68531,999,587,.17038004E-2,.57567E-3,0
STARLINK-36249,2026-068AA,2026-06-27T03:49:11.878464,15.34391808,.00009802,53.1597,338.7808,72.7424,287.3686,0,U,68532,999,1373,.89916152E-3,.30117E-3,0
STARLINK-36252,2026-068AB,2026-06-26T19:51:07.094880,15.34386648,.00008072,53.1581,340.2559,122.7975,237.3105,0,U,68533,999,1368,.10024392E-2,.3363E-3,0
STARLINK-36299,2026-068AC,2026-06-26T19:54:09.379872,15.34379649,.0001047,53.1594,340.2719,75.2607,284.8512,0,U,68534,999,1368,.9520106E-3,.31905E-3,0
STARLINK-37234,2026-068AD,2026-06-26T19:22:16.995360,15.49325293,.0001016,53.1587,337.9966,97.4307,262.6817,0,U,68535,999,1371,.97631281E-3,.54259E-3,0
STARLINK-37173,2026-068AE,2026-06-26T20:50:05.658720,15.49339978,.0000878,53.1586,337.6694,71.0601,289.0503,0,U,68536,999,1372,.12794E-2,.71436E-3,0
